OBJECT_NAME,OBJECT_ID,EPOCH,MEAN_MOTION,ECCENTRICITY,INCLINATION,RA_OF_ASC_NODE,ARG_OF_PERICENTER,MEAN_ANOMALY,EPHEMERIS_TYPE,CLASSIFICATION_TYPE,NORAD_CAT_ID,ELEMENT_SET_NO,REV_AT_EPOCH,BSTAR,MEAN_MOTION_DOT,MEAN_MOTION_DDOT
BEIDOU-2 IGSO-5 (C10),2011-073A,2026-07-02T17:30:18.330912,1.00270596,.01145273,47.6496,271.3544,222.0502,141.5350,0,U,37948,999,5329,0,-.128E-5,0
LUCH 5A (SDCM/PRN 140),2011-074B,2026-07-20T07:52:32.081376,1.00274264,.00028037,8.8359,73.3187,60.2263,89.7133,0,U,37951,999,5338,0,-.56E-6,0
BEIDOU-2 G5 (C05),2012-008A,2026-07-20T03:08:32.193024,1.00272000,.00072648,3.6543,69.4930,270.1122,64.0898,0,U,38091,999,5269,0,.53E-6,0
BEIDOU-2 M3 (C11),2012-018A,2026-07-17T19:05:16.894752,1.86229645,.00210447,55.7296,303.8435,272.1726,87.6188,0,U,38250,999,9651,0,-.87E-6,0
BEIDOU-2 M4 (C12),2012-018B,2026-07-18T06:21:05.165568,1.86229286,.00121764,55.6290,303.0389,272.1376,87.7565,0,U,38251,999,9652,0,-.89E-6,0
SES-5 (EGNOS/PRN 136),2012-036A,2026-07-20T06:18:33.625152,1.00270738,.0001959,0.0458,318.3562,158.0271,281.2661,0,U,38652,999,4478,0,.31E-6,0
BEIDOU-2 M6 (C14),2012-050B,2026-07-17T23:22:51.951360,1.86230950,.00128115,56.5713,61.8766,1.9822,358.0915,0,U,38775,999,9388,0,-.62E-6,0
GSAT-10 (GAGAN/PRN 128),2012-051B,2026-07-20T03:15:31.523328,1.00272752,.00075789,0.0778,264.0661,191.4212,334.3142,0,U,38779,999,5042,0,-.167E-5,0
GPS BIIF-3  (PRN 24),2012-053A,2026-07-19T17:21:06.149376,2.00568050,.01823191,53.5900,142.2664,66.3032,295.5764,0,U,38833,999,10009,0,.24E-6,0
GSAT0103 (GALILEO-FM3),2012-055A,2026-07-19T03:38:04.424640,1.70473478,.0003622,55.8248,100.6680,312.6356,47.3724,0,U,38857,999,8555,0,-.35E-6,0
BEIDOU-2 G6 (C02),2012-059A,2026-07-20T02:27:21.698208,1.00273137,.00088822,4.5031,73.1685,327.9302,17.6380,0,U,38953,999,5023,0,-.181E-5,0
LUCH 5B (SDCM/PRN 125),2012-061A,2026-07-19T23:29:38.638752,1.00270443,.00038155,10.5531,49.5541,145.9604,78.3562,0,U,38977,999,4993,0,-.146E-5,0
COSMOS 2485 (747),2013-019A,2026-07-17T09:53:07.452384,2.13103096,.00225849,65.4363,72.5906,230.9016,128.9717,0,U,39155,999,10292,0,-.24E-6,0
GPS BIIF-4  (PRN 27),2013-023A,2026-07-20T02:08:43.829088,2.00563399,.0141392,54.4792,267.6316,51.1093,310.2110,0,U,39166,999,9654,0,-.38E-6,0
IRNSS-1A,2013-034A,2026-07-10T17:17:25.712736,1.00281941,.0017567,35.7704,63.5328,183.4462,356.2994,0,U,39199,999,4760,0,.47E-6,0
GPS BIIF-5  (PRN 30),2014-008A,2026-07-20T02:11:25.103328,2.00561932,.008405,53.6581,147.9776,231.5729,127.6475,0,U,39533,999,9034,0,.31E-6,0
ASTRA 5B (EGNOS/PRN 123),2014-011B,2026-07-20T06:23:48.122016,1.00271034,.00021002,0.0660,308.4162,178.0087,291.0095,0,U,39617,999,4499,0,.135E-5,0
COSMOS 2492 (754),2014-012A,2026-07-20T04:28:16.369248,2.13103109,.00103044,65.2760,312.8143,316.7836,43.1566,0,U,39620,999,9594,0,-.83E-6,0
IRNSS-1B,2014-017A,2026-07-20T04:49:52.300992,1.00267347,.00218894,28.9015,239.8402,191.0727,354.6647,0,U,39635,999,4512,0,.129E-5,0
LUCH 5V (SDCM/PRN 141),2014-023A,2026-07-20T02:39:38.568384,1.00272126,.00021354,5.2125,69.4035,80.7100,282.4267,0,U,39727,999,4469,0,-.274E-5,0
GPS BIIF-6  (PRN 06),2014-026A,2026-07-19T20:51:10.781856,2.00558646,.00381671,56.4805,330.2455,325.6516,34.1064,0,U,39741,999,8919,0,-.106E-5,0
COSMOS 2500 (755),2014-032A,2026-07-18T22:44:56.641920,2.13105774,.00084407,65.2120,312.6009,191.3225,168.6798,0,U,40001,999,9413,0,-.75E-6,0
GPS BIIF-7  (PRN 09),2014-045A,2026-07-19T23:03:08.720640,2.00560594,.00347476,55.3745,87.1591,118.4820,241.9209,0,U,40105,999,8673,0,-.53E-6,0
GSAT0201 (GALILEO 5),2014-050A,2026-07-19T05:12:32.843520,1.85519774,.16790347,48.8402,272.1210,180.6508,179.1522,0,U,40128,999,7891,0,-.64E-6,0
GSAT0202 (GALILEO 6),2014-050B,2026-07-17T20:31:57.990720,1.85520332,.16801746,48.8588,271.2629,181.3093,178.2437,0,U,40129,999,8105,0,-.54E-6,0
IRNSS-1C,2014-061A,2026-07-19T20:17:10.243680,1.00271583,.00219671,6.5978,88.3095,5.9687,230.6942,0,U,40269,999,4301,0,-.169E-5,0
GPS BIIF-8  (PRN 03),2014-068A,2026-07-19T07:55:42.942432,2.00553506,.00674467,57.0098,29.7176,72.4070,288.3651,0,U,40294,999,8585,0,-.87E-6,0
COSMOS 2501 (702K),2014-075A,2026-07-20T03:34:16.226688,2.13101278,.00226822,63.6184,189.2310,212.6689,147.1893,0,U,40315,999,9055,0,.81E-6,0
GPS BIIF-9  (PRN 26),2015-013A,2026-07-19T23:16:59.064384,2.00574099,.01099207,53.2396,202.8474,39.9101,320.9028,0,U,40534,999,8248,0,.64E-6,0
GSAT0203 (GALILEO 7),2015-017A,2026-07-17T03:05:03.049728,1.70476213,.0002702,56.7761,340.7804,254.9804,104.9775,0,U,40544,999,6971,0,-.104E-5,0
GSAT0204 (GALILEO 8),2015-017B,2026-07-19T17:32:14.860320,1.70475794,.00029182,56.7827,340.7283,234.3508,125.6149,0,U,40545,999,3280,0,-.107E-5,0
